[{"OBJECT_NAME":"IRIDIUM 33 DEB","OBJECT_ID":"1997-051VQ","EPOCH":"2026-03-27T11:14:46.396320","MEAN_MOTION":14.43679561,"ECCENTRICITY":0.002413,"INCLINATION":86.3479,"RA_OF_ASC_NODE":349.069,"ARG_OF_PERICENTER":238.4257,"MEAN_ANOMALY":121.4589,"EPHEMERIS_TYPE":0,"CLASSIFICATION_TYPE":"U","NORAD_CAT_ID":36083,"ELEMENT_SET_NO":999,"REV_AT_EPOCH":86960,"BSTAR":0.00042553,"MEAN_MOTION_DOT":1.468e-5,"MEAN_MOTION_DDOT":0},{"OBJECT_NAME":"IRIDIUM 33 DEB","OBJECT_ID":"1997-051VU","EPOCH":"2026-03-29T04:08:51.082080","MEAN_MOTION":14.75182873,"ECCENTRICITY":0.0030013,"INCLINATION":86.288,"RA_OF_ASC_NODE":250.5272,"ARG_OF_PERICENTER":157.4006,"MEAN_ANOMALY":202.8542,"EPHEMERIS_TYPE":0,"CLASSIFICATION_TYPE":"U","NORAD_CAT_ID":36390,"ELEMENT_SET_NO":999,"REV_AT_EPOCH":67830,"BSTAR":0.0016396,"MEAN_MOTION_DOT":0.00011185,"MEAN_MOTION_DDOT":0},{"OBJECT_NAME":"IRIDIUM 33 DEB","OBJECT_ID":"1997-051VZ","EPOCH":"2026-03-27T12:38:30.716160","MEAN_MOTION":14.46255051,"ECCENTRICITY":0.0010373,"INCLINATION":86.3846,"RA_OF_ASC_NODE":7.6228,"ARG_OF_PERICENTER":130.0532,"MEAN_ANOMALY":230.1582,"EPHEMERIS_TYPE":0,"CLASSIFICATION_TYPE":"U","NORAD_CAT_ID":36483,"ELEMENT_SET_NO":999,"REV_AT_EPOCH":66660,"BSTAR":0.00046158,"MEAN_MOTION_DOT":1.673e-5,"MEAN_MOTION_DDOT":0},{"OBJECT_NAME":"IRIDIUM 33 DEB","OBJECT_ID":"1997-051WG","EPOCH":"2026-03-29T02:08:43.353024","MEAN_MOTION":14.79255814,"ECCENTRICITY":0.0005307,"INCLINATION":86.365,"RA_OF_ASC_NODE":322.3885,"ARG_OF_PERICENTER":60.6686,"MEAN_ANOMALY":299.5065,"EPHEMERIS_TYPE":0,"CLASSIFICATION_TYPE":"U","NORAD_CAT_ID":36490,"ELEMENT_SET_NO":999,"REV_AT_EPOCH":88055,"BSTAR":0.0014393,"MEAN_MOTION_DOT":0.00010727,"MEAN_MOTION_DDOT":0},{"OBJECT_NAME":"IRIDIUM 33 DEB","OBJECT_ID":"1997-051WK","EPOCH":"2026-03-27T21:37:33.119328","MEAN_MOTION":14.66929483,"ECCENTRICITY":0.00109807,"INCLINATION":86.358,"RA_OF_ASC_NODE":324.9128,"ARG_OF_PERICENTER":3.6294,"MEAN_ANOMALY":356.4997,"EPHEMERIS_TYPE":0,"CLASSIFICATION_TYPE":"U","NORAD_CAT_ID":36493,"ELEMENT_SET_NO":999,"REV_AT_EPOCH":76059,"BSTAR":0.00095463889,"MEAN_MOTION_DOT":5.366e-5,"MEAN_MOTION_DDOT":0},{"OBJECT_NAME":"IRIDIUM 33 DEB","OBJECT_ID":"1997-051XH","EPOCH":"2026-03-28T00:09:16.053120","MEAN_MOTION":14.52248893,"ECCENTRICITY":0.00228317,"INCLINATION":86.3559,"RA_OF_ASC_NODE":357.5324,"ARG_OF_PERICENTER":195.1207,"MEAN_ANOMALY":164.9319,"EPHEMERIS_TYPE":0,"CLASSIFICATION_TYPE":"U","NORAD_CAT_ID":37548,"ELEMENT_SET_NO":999,"REV_AT_EPOCH":67059,"BSTAR":0.00069615789,"MEAN_MOTION_DOT":2.856e-5,"MEAN_MOTION_DDOT":0},{"OBJECT_NAME":"IRIDIUM 33 DEB","OBJECT_ID":"1997-051XK","EPOCH":"2026-03-23T23:11:28.186080","MEAN_MOTION":14.69023595,"ECCENTRICITY":0.00048731,"INCLINATION":86.3793,"RA_OF_ASC_NODE":338.9631,"ARG_OF_PERICENTER":101.6379,"MEAN_ANOMALY":258.5383,"EPHEMERIS_TYPE":0,"CLASSIFICATION_TYPE":"U","NORAD_CAT_ID":37550,"ELEMENT_SET_NO":999,"REV_AT_EPOCH":87818,"BSTAR":0.0011773044,"MEAN_MOTION_DOT":6.928e-5,"MEAN_MOTION_DDOT":0},{"OBJECT_NAME":"IRIDIUM 33 DEB","OBJECT_ID":"1997-051XX","EPOCH":"2026-03-22T12:44:46.455072","MEAN_MOTION":14.57637636,"ECCENTRICITY":0.00255381,"INCLINATION":86.3789,"RA_OF_ASC_NODE":0.0548,"ARG_OF_PERICENTER":124.1616,"MEAN_ANOMALY":54.2204,"EPHEMERIS_TYPE":0,"CLASSIFICATION_TYPE":"U","NORAD_CAT_ID":37562,"ELEMENT_SET_NO":999,"REV_AT_EPOCH":87781,"BSTAR":0.001188295,"MEAN_MOTION_DOT":5.46e-5,"MEAN_MOTION_DDOT":0},{"OBJECT_NAME":"IRIDIUM 33 DEB","OBJECT_ID":"1997-051YA","EPOCH":"2026-03-18T10:05:32.803584","MEAN_MOTION":14.52049588,"ECCENTRICITY":0.00145228,"INCLINATION":86.3518,"RA_OF_ASC_NODE":327.9028,"ARG_OF_PERICENTER":114.7813,"MEAN_ANOMALY":245.4906,"EPHEMERIS_TYPE":0,"CLASSIFICATION_TYPE":"U","NORAD_CAT_ID":37565,"ELEMENT_SET_NO":999,"REV_AT_EPOCH":67225,"BSTAR":0.00038480119,"MEAN_MOTION_DOT":1.578e-5,"MEAN_MOTION_DDOT":0},{"OBJECT_NAME":"IRIDIUM 33 DEB","OBJECT_ID":"1997-051YD","EPOCH":"2026-03-28T01:16:31.850688","MEAN_MOTION":14.521263,"ECCENTRICITY":0.00911556,"INCLINATION":86.3387,"RA_OF_ASC_NODE":120.297,"ARG_OF_PERICENTER":114.6409,"MEAN_ANOMALY":246.4325,"EPHEMERIS_TYPE":0,"CLASSIFICATION_TYPE":"U","NORAD_CAT_ID":38017,"ELEMENT_SET_NO":999,"REV_AT_EPOCH":62929,"BSTAR":0.0012458448,"MEAN_MOTION_DOT":5.35e-5,"MEAN_MOTION_DDOT":0},{"OBJECT_NAME":"IRIDIUM 33 DEB","OBJECT_ID":"1997-051YJ","EPOCH":"2026-03-24T22:36:03.749184","MEAN_MOTION":14.42198644,"ECCENTRICITY":0.00467267,"INCLINATION":86.2708,"RA_OF_ASC_NODE":331.6724,"ARG_OF_PERICENTER":71.1033,"MEAN_ANOMALY":289.5224,"EPHEMERIS_TYPE":0,"CLASSIFICATION_TYPE":"U","NORAD_CAT_ID":38022,"ELEMENT_SET_NO":999,"REV_AT_EPOCH":70666,"BSTAR":0.00092324845,"MEAN_MOTION_DOT":3.1e-5,"MEAN_MOTION_DDOT":0},{"OBJECT_NAME":"IRIDIUM 33 DEB","OBJECT_ID":"1997-051YQ","EPOCH":"2026-03-27T08:30:37.382112","MEAN_MOTION":14.46556855,"ECCENTRICITY":0.0029358,"INCLINATION":86.3243,"RA_OF_ASC_NODE":314.8019,"ARG_OF_PERICENTER":131.9967,"MEAN_ANOMALY":228.3743,"EPHEMERIS_TYPE":0,"CLASSIFICATION_TYPE":"U","NORAD_CAT_ID":38028,"ELEMENT_SET_NO":999,"REV_AT_EPOCH":67007,"BSTAR":0.00038049,"MEAN_MOTION_DOT":1.398e-5,"MEAN_MOTION_DDOT":0},{"OBJECT_NAME":"IRIDIUM 33 DEB","OBJECT_ID":"1997-051ZC","EPOCH":"2026-03-25T01:07:25.561632","MEAN_MOTION":14.27483477,"ECCENTRICITY":0.00620978,"INCLINATION":86.2998,"RA_OF_ASC_NODE":4.972,"ARG_OF_PERICENTER":220.4027,"MEAN_ANOMALY":157.5982,"EPHEMERIS_TYPE":0,"CLASSIFICATION_TYPE":"U","NORAD_CAT_ID":38228,"ELEMENT_SET_NO":999,"REV_AT_EPOCH":86241,"BSTAR":0.00033271192,"MEAN_MOTION_DOT":8.52e-6,"MEAN_MOTION_DDOT":0},{"OBJECT_NAME":"IRIDIUM 33 DEB","OBJECT_ID":"1997-051ZR","EPOCH":"2026-03-26T07:54:54.563616","MEAN_MOTION":14.55641502,"ECCENTRICITY":0.00051627,"INCLINATION":86.3192,"RA_OF_ASC_NODE":304.8842,"ARG_OF_PERICENTER":73.7034,"MEAN_ANOMALY":286.4741,"EPHEMERIS_TYPE":0,"CLASSIFICATION_TYPE":"U","NORAD_CAT_ID":38241,"ELEMENT_SET_NO":999,"REV_AT_EPOCH":61707,"BSTAR":0.00052754064,"MEAN_MOTION_DOT":2.323e-5,"MEAN_MOTION_DDOT":0},{"OBJECT_NAME":"IRIDIUM 33 DEB","OBJECT_ID":"1997-051AAB","EPOCH":"2026-03-26T09:40:46.497216","MEAN_MOTION":14.5127721,"ECCENTRICITY":0.0027733,"INCLINATION":86.3441,"RA_OF_ASC_NODE":324.8906,"ARG_OF_PERICENTER":97.7647,"MEAN_ANOMALY":262.6708,"EPHEMERIS_TYPE":0,"CLASSIFICATION_TYPE":"U","NORAD_CAT_ID":38474,"ELEMENT_SET_NO":999,"REV_AT_EPOCH":66821,"BSTAR":0.00041478121,"MEAN_MOTION_DOT":1.678e-5,"MEAN_MOTION_DDOT":0},{"OBJECT_NAME":"IRIDIUM 33 DEB","OBJECT_ID":"1997-051AAJ","EPOCH":"2026-03-29T01:21:01.893888","MEAN_MOTION":14.59395987,"ECCENTRICITY":0.0059285,"INCLINATION":85.96,"RA_OF_ASC_NODE":123.3322,"ARG_OF_PERICENTER":183.8099,"MEAN_ANOMALY":176.2668,"EPHEMERIS_TYPE":0,"CLASSIFICATION_TYPE":"U","NORAD_CAT_ID":39777,"ELEMENT_SET_NO":999,"REV_AT_EPOCH":61734,"BSTAR":0.0025013,"MEAN_MOTION_DOT":0.00012168,"MEAN_MOTION_DDOT":0}]
